[{"OBJECT_NAME":"ONEWEB-0188","OBJECT_ID":"2021-031X","EPOCH":"2025-12-27T22:39:30.342816","MEAN_MOTION":13.14502156,"ECCENTRICITY":0.0001757,"INCLINATION":87.8992,"RA_OF_ASC_NODE":323.8584,"ARG_OF_PERICENTER":83.6568,"MEAN_ANOMALY":276.4762,"EPHEMERIS_TYPE":0,"CLASSIFICATION_TYPE":"U","NORAD_CAT_ID":48231,"ELEMENT_SET_NO":999,"REV_AT_EPOCH":22564,"BSTAR":-0.00015058,"MEAN_MOTION_DOT":-4.3e-7,"MEAN_MOTION_DDOT":0},{"OBJECT_NAME":"ONEWEB-0220","OBJECT_ID":"2021-031Y","EPOCH":"2025-12-28T06:55:01.938432","MEAN_MOTION":13.14500988,"ECCENTRICITY":0.0001632,"INCLINATION":87.9015,"RA_OF_ASC_NODE":323.7403,"ARG_OF_PERICENTER":88.8147,"MEAN_ANOMALY":271.317,"EPHEMERIS_TYPE":0,"CLASSIFICATION_TYPE":"U","NORAD_CAT_ID":48232,"ELEMENT_SET_NO":999,"REV_AT_EPOCH":22595,"BSTAR":0.00028731168,"MEAN_MOTION_DOT":1.19e-6,"MEAN_MOTION_DDOT":0},{"OBJECT_NAME":"ONEWEB-0165","OBJECT_ID":"2021-031Z","EPOCH":"2025-12-27T22:28:05.755008","MEAN_MOTION":13.14501795,"ECCENTRICITY":0.0001509,"INCLINATION":87.8996,"RA_OF_ASC_NODE":323.8344,"ARG_OF_PERICENTER":75.2767,"MEAN_ANOMALY":284.853,"EPHEMERIS_TYPE":0,"CLASSIFICATION_TYPE":"U","NORAD_CAT_ID":48233,"ELEMENT_SET_NO":999,"REV_AT_EPOCH":22586,"BSTAR":-0.00043035,"MEAN_MOTION_DOT":-1.47e-6,"MEAN_MOTION_DDOT":0},{"OBJECT_NAME":"ONEWEB-0199","OBJECT_ID":"2021-031AA","EPOCH":"2025-12-28T03:34:05.416320","MEAN_MOTION":13.14501379,"ECCENTRICITY":0.00019728,"INCLINATION":87.9011,"RA_OF_ASC_NODE":323.7689,"ARG_OF_PERICENTER":81.1317,"MEAN_ANOMALY":279.0036,"EPHEMERIS_TYPE":0,"CLASSIFICATION_TYPE":"U","NORAD_CAT_ID":48234,"ELEMENT_SET_NO":999,"REV_AT_EPOCH":22579,"BSTAR":-0.00014613219,"MEAN_MOTION_DOT":-4.1e-7,"MEAN_MOTION_DDOT":0},{"OBJECT_NAME":"ONEWEB-0203","OBJECT_ID":"2021-031AB","EPOCH":"2025-12-28T06:59:36.224736","MEAN_MOTION":13.1450075,"ECCENTRICITY":0.00017659,"INCLINATION":87.9005,"RA_OF_ASC_NODE":323.7405,"ARG_OF_PERICENTER":73.9736,"MEAN_ANOMALY":286.1588,"EPHEMERIS_TYPE":0,"CLASSIFICATION_TYPE":"U","NORAD_CAT_ID":48235,"ELEMENT_SET_NO":999,"REV_AT_EPOCH":22582,"BSTAR":0.00017082529,"MEAN_MOTION_DOT":7.6e-7,"MEAN_MOTION_DDOT":0},{"OBJECT_NAME":"ONEWEB-0197","OBJECT_ID":"2021-031AC","EPOCH":"2025-12-28T06:22:51.841920","MEAN_MOTION":13.14502218,"ECCENTRICITY":0.00019622,"INCLINATION":87.9007,"RA_OF_ASC_NODE":323.7445,"ARG_OF_PERICENTER":91.1198,"MEAN_ANOMALY":269.0157,"EPHEMERIS_TYPE":0,"CLASSIFICATION_TYPE":"U","NORAD_CAT_ID":48236,"ELEMENT_SET_NO":999,"REV_AT_EPOCH":22573,"BSTAR":0.00058787853,"MEAN_MOTION_DOT":2.31e-6,"MEAN_MOTION_DDOT":0},{"OBJECT_NAME":"ONEWEB-0194","OBJECT_ID":"2021-031AD","EPOCH":"2025-12-27T22:34:55.907040","MEAN_MOTION":13.14500806,"ECCENTRICITY":0.000198,"INCLINATION":87.9007,"RA_OF_ASC_NODE":323.8261,"ARG_OF_PERICENTER":77.6208,"MEAN_ANOMALY":282.5143,"EPHEMERIS_TYPE":0,"CLASSIFICATION_TYPE":"U","NORAD_CAT_ID":48237,"ELEMENT_SET_NO":999,"REV_AT_EPOCH":22586,"BSTAR":-0.00046138,"MEAN_MOTION_DOT":-1.58e-6,"MEAN_MOTION_DDOT":0},{"OBJECT_NAME":"ONEWEB-0193","OBJECT_ID":"2021-031AE","EPOCH":"2025-12-28T06:16:12.926208","MEAN_MOTION":13.14500227,"ECCENTRICITY":0.00021662,"INCLINATION":87.9005,"RA_OF_ASC_NODE":323.7568,"ARG_OF_PERICENTER":74.8725,"MEAN_ANOMALY":285.2644,"EPHEMERIS_TYPE":0,"CLASSIFICATION_TYPE":"U","NORAD_CAT_ID":48238,"ELEMENT_SET_NO":999,"REV_AT_EPOCH":22585,"BSTAR":-4.0256417e-5,"MEAN_MOTION_DOT":-2.0e-8,"MEAN_MOTION_DDOT":0},{"OBJECT_NAME":"ONEWEB-0191","OBJECT_ID":"2021-031AF","EPOCH":"2025-12-28T06:32:13.165440","MEAN_MOTION":13.14503297,"ECCENTRICITY":0.0001853,"INCLINATION":87.9015,"RA_OF_ASC_NODE":323.7453,"ARG_OF_PERICENTER":82.4749,"MEAN_ANOMALY":277.6591,"EPHEMERIS_TYPE":0,"CLASSIFICATION_TYPE":"U","NORAD_CAT_ID":48239,"ELEMENT_SET_NO":999,"REV_AT_EPOCH":22571,"BSTAR":0.00062263624,"MEAN_MOTION_DOT":2.44e-6,"MEAN_MOTION_DDOT":0},{"OBJECT_NAME":"ONEWEB-0195","OBJECT_ID":"2021-031AG","EPOCH":"2025-12-28T04:09:29.171520","MEAN_MOTION":13.14503133,"ECCENTRICITY":0.00014047,"INCLINATION":87.9015,"RA_OF_ASC_NODE":323.7628,"ARG_OF_PERICENTER":76.6796,"MEAN_ANOMALY":283.4491,"EPHEMERIS_TYPE":0,"CLASSIFICATION_TYPE":"U","NORAD_CAT_ID":48240,"ELEMENT_SET_NO":999,"REV_AT_EPOCH":22568,"BSTAR":-0.00032480616,"MEAN_MOTION_DOT":-1.08e-6,"MEAN_MOTION_DDOT":0},{"OBJECT_NAME":"ONEWEB-0201","OBJECT_ID":"2021-031AH","EPOCH":"2025-12-27T22:23:44.556576","MEAN_MOTION":13.14503518,"ECCENTRICITY":0.000165,"INCLINATION":87.8996,"RA_OF_ASC_NODE":323.8472,"ARG_OF_PERICENTER":91.9967,"MEAN_ANOMALY":268.1352,"EPHEMERIS_TYPE":0,"CLASSIFICATION_TYPE":"U","NORAD_CAT_ID":48241,"ELEMENT_SET_NO":999,"REV_AT_EPOCH":22588,"BSTAR":-0.00043279,"MEAN_MOTION_DOT":-1.48e-6,"MEAN_MOTION_DDOT":0},{"OBJECT_NAME":"ONEWEB-0207","OBJECT_ID":"2021-031AJ","EPOCH":"2025-12-28T07:03:01.974240","MEAN_MOTION":13.14503252,"ECCENTRICITY":0.0001766,"INCLINATION":87.9011,"RA_OF_ASC_NODE":323.7399,"ARG_OF_PERICENTER":89.2946,"MEAN_ANOMALY":270.8386,"EPHEMERIS_TYPE":0,"CLASSIFICATION_TYPE":"U","NORAD_CAT_ID":48242,"ELEMENT_SET_NO":999,"REV_AT_EPOCH":22584,"BSTAR":9.9698114e-5,"MEAN_MOTION_DOT":5.0e-7,"MEAN_MOTION_DDOT":0},{"OBJECT_NAME":"ONEWEB-0208","OBJECT_ID":"2021-031AK","EPOCH":"2025-12-28T06:36:46.765728","MEAN_MOTION":13.14502318,"ECCENTRICITY":0.0001525,"INCLINATION":87.9006,"RA_OF_ASC_NODE":323.7571,"ARG_OF_PERICENTER":76.8407,"MEAN_ANOMALY":283.2893,"EPHEMERIS_TYPE":0,"CLASSIFICATION_TYPE":"U","NORAD_CAT_ID":48243,"ELEMENT_SET_NO":999,"REV_AT_EPOCH":22585,"BSTAR":0.0005980472,"MEAN_MOTION_DOT":2.35e-6,"MEAN_MOTION_DDOT":0},{"OBJECT_NAME":"ONEWEB-0200","OBJECT_ID":"2021-031AL","EPOCH":"2025-12-27T22:25:49.001088","MEAN_MOTION":13.14503183,"ECCENTRICITY":0.0001691,"INCLINATION":87.9005,"RA_OF_ASC_NODE":323.8147,"ARG_OF_PERICENTER":81.4734,"MEAN_ANOMALY":278.6587,"EPHEMERIS_TYPE":0,"CLASSIFICATION_TYPE":"U","NORAD_CAT_ID":48244,"ELEMENT_SET_NO":999,"REV_AT_EPOCH":22573,"BSTAR":-0.0005362,"MEAN_MOTION_DOT":-1.86e-6,"MEAN_MOTION_DDOT":0},{"OBJECT_NAME":"ONEWEB-0217","OBJECT_ID":"2021-031AM","EPOCH":"2025-12-27T22:48:37.979712","MEAN_MOTION":13.14501934,"ECCENTRICITY":0.0001506,"INCLINATION":87.9016,"RA_OF_ASC_NODE":323.8071,"ARG_OF_PERICENTER":76.9847,"MEAN_ANOMALY":283.145,"EPHEMERIS_TYPE":0,"CLASSIFICATION_TYPE":"U","NORAD_CAT_ID":48245,"ELEMENT_SET_NO":999,"REV_AT_EPOCH":22568,"BSTAR":6.1892e-5,"MEAN_MOTION_DOT":3.6e-7,"MEAN_MOTION_DDOT":0},{"OBJECT_NAME":"ONEWEB-0211","OBJECT_ID":"2021-045A","EPOCH":"2025-12-28T07:04:18.562656","MEAN_MOTION":13.16138086,"ECCENTRICITY":0.00015667,"INCLINATION":87.9017,"RA_OF_ASC_NODE":293.2188,"ARG_OF_PERICENTER":62.1258,"MEAN_ANOMALY":298.0031,"EPHEMERIS_TYPE":0,"CLASSIFICATION_TYPE":"U","NORAD_CAT_ID":48767,"ELEMENT_SET_NO":999,"REV_AT_EPOCH":22196,"BSTAR":-0.0001036686,"MEAN_MOTION_DOT":-2.7e-7,"MEAN_MOTION_DDOT":0},{"OBJECT_NAME":"ONEWEB-0223","OBJECT_ID":"2021-045B","EPOCH":"2025-12-28T07:01:09.083136","MEAN_MOTION":13.15553975,"ECCENTRICITY":0.00017883,"INCLINATION":87.9005,"RA_OF_ASC_NODE":293.2871,"ARG_OF_PERICENTER":62.3381,"MEAN_ANOMALY":297.793,"EPHEMERIS_TYPE":0,"CLASSIFICATION_TYPE":"U","NORAD_CAT_ID":48768,"ELEMENT_SET_NO":999,"REV_AT_EPOCH":22193,"BSTAR":-0.00017044596,"MEAN_MOTION_DOT":-5.1e-7,"MEAN_MOTION_DDOT":0}]
